CCSDS_OMM_VERS = 2.0
CREATION_DATE  = 
ORIGINATOR     = 

OBJECT_NAME    = STARLINK-36799
OBJECT_ID      = 2026-037AC
CENTER_NAME    = EARTH
REF_FRAME      = TEME
TIME_SYSTEM    = UTC
MEAN_ELEMENT_THEORY = SGP/SGP4

EPOCH          = 2026-03-21T12:00:00.999648
MEAN_MOTION    = 15.67297976
ECCENTRICITY   = .000134
INCLINATION    = 42.9992
RA_OF_ASC_NODE = 126.1520
ARG_OF_PERICENTER = 277.3501
MEAN_ANOMALY   = 37.8078

EPHEMERIS_TYPE = 0
CLASSIFICATION_TYPE = U
NORAD_CAT_ID   = 67958
ELEMENT_SET_NO = 999
REV_AT_EPOCH   = 509
BSTAR          = -.19105702E-1
MEAN_MOTION_DOT = -.1879714E-1
MEAN_MOTION_DDOT = 0

CCSDS_OMM_VERS = 2.0
CREATION_DATE  = 
ORIGINATOR     = 

OBJECT_NAME    = STARLINK-36834
OBJECT_ID      = 2026-037AD
CENTER_NAME    = EARTH
REF_FRAME      = TEME
TIME_SYSTEM    = UTC
MEAN_ELEMENT_THEORY = SGP/SGP4

EPOCH          = 2026-03-21T12:00:00.999648
MEAN_MOTION    = 15.57776386
ECCENTRICITY   = .00012126
INCLINATION    = 42.9993
RA_OF_ASC_NODE = 126.5261
ARG_OF_PERICENTER = 290.1976
MEAN_ANOMALY   = 234.3136

EPHEMERIS_TYPE = 0
CLASSIFICATION_TYPE = U
NORAD_CAT_ID   = 67959
ELEMENT_SET_NO = 999
REV_AT_EPOCH   = 509
BSTAR          = -.27313765E-1
MEAN_MOTION_DOT = -.1848249E-1
MEAN_MOTION_DDOT = 0

CCSDS_OMM_VERS = 2.0
CREATION_DATE  = 
ORIGINATOR     = 

OBJECT_NAME    = STARLINK-36841
OBJECT_ID      = 2026-037AE
CENTER_NAME    = EARTH
REF_FRAME      = TEME
TIME_SYSTEM    = UTC
MEAN_ELEMENT_THEORY = SGP/SGP4

EPOCH          = 2026-03-21T12:00:00.999648
MEAN_MOTION    = 15.58755152
ECCENTRICITY   = .00010442
INCLINATION    = 42.9996
RA_OF_ASC_NODE = 126.4866
ARG_OF_PERICENTER = 283.8896
MEAN_ANOMALY   = 256.3052

EPHEMERIS_TYPE = 0
CLASSIFICATION_TYPE = U
NORAD_CAT_ID   = 67960
ELEMENT_SET_NO = 999
REV_AT_EPOCH   = 509
BSTAR          = -.26343771E-1
MEAN_MOTION_DOT = -.1850095E-1
MEAN_MOTION_DDOT = 0

CCSDS_OMM_VERS = 2.0
CREATION_DATE  = 
ORIGINATOR     = 

OBJECT_NAME    = STARLINK-36912
OBJECT_ID      = 2026-038A
CENTER_NAME    = EARTH
REF_FRAME      = TEME
TIME_SYSTEM    = UTC
MEAN_ELEMENT_THEORY = SGP/SGP4

EPOCH          = 2026-03-21T12:00:00.999648
MEAN_MOTION    = 15.53334275
ECCENTRICITY   = .00018575
INCLINATION    = 97.2853
RA_OF_ASC_NODE = 91.3182
ARG_OF_PERICENTER = 97.6371
MEAN_ANOMALY   = 171.5706

EPHEMERIS_TYPE = 0
CLASSIFICATION_TYPE = U
NORAD_CAT_ID   = 67961
ELEMENT_SET_NO = 999
REV_AT_EPOCH   = 510
BSTAR          = -.3992282E-1
MEAN_MOTION_DOT = -.2222639E-1
MEAN_MOTION_DDOT = 0

CCSDS_OMM_VERS = 2.0
CREATION_DATE  = 
ORIGINATOR     = 

OBJECT_NAME    = STARLINK-36881
OBJECT_ID      = 2026-038B
CENTER_NAME    = EARTH
REF_FRAME      = TEME
TIME_SYSTEM    = UTC
MEAN_ELEMENT_THEORY = SGP/SGP4

EPOCH          = 2026-03-21T12:00:00.999648
MEAN_MOTION    = 15.53701500
ECCENTRICITY   = .00020121
INCLINATION    = 97.2858
RA_OF_ASC_NODE = 91.3239
ARG_OF_PERICENTER = 100.8216
MEAN_ANOMALY   = 180.1443

EPHEMERIS_TYPE = 0
CLASSIFICATION_TYPE = U
NORAD_CAT_ID   = 67962
ELEMENT_SET_NO = 999
REV_AT_EPOCH   = 510
BSTAR          = -.39112962E-1
MEAN_MOTION_DOT = -.2208861E-1
MEAN_MOTION_DDOT = 0

CCSDS_OMM_VERS = 2.0
CREATION_DATE  = 
ORIGINATOR     = 

OBJECT_NAME    = STARLINK-36357
OBJECT_ID      = 2026-038C
CENTER_NAME    = EARTH
REF_FRAME      = TEME
TIME_SYSTEM    = UTC
MEAN_ELEMENT_THEORY = SGP/SGP4

EPOCH          = 2026-03-21T12:00:00.999648
MEAN_MOTION    = 15.49095686
ECCENTRICITY   = .00011107
INCLINATION    = 97.2850
RA_OF_ASC_NODE = 91.2905
ARG_OF_PERICENTER = 96.3832
MEAN_ANOMALY   = 106.2021

EPHEMERIS_TYPE = 0
CLASSIFICATION_TYPE = U
NORAD_CAT_ID   = 67963
ELEMENT_SET_NO = 999
REV_AT_EPOCH   = 510
BSTAR          = .23739807E-2
MEAN_MOTION_DOT = .130762E-2
MEAN_MOTION_DDOT = 0

CCSDS_OMM_VERS = 2.0
CREATION_DATE  = 
ORIGINATOR     = 

OBJECT_NAME    = STARLINK-36349
OBJECT_ID      = 2026-038D
CENTER_NAME    = EARTH
REF_FRAME      = TEME
TIME_SYSTEM    = UTC
MEAN_ELEMENT_THEORY = SGP/SGP4

EPOCH          = 2026-03-21T12:00:00.999648
MEAN_MOTION    = 15.49120059
ECCENTRICITY   = .00010059
INCLINATION    = 97.2850
RA_OF_ASC_NODE = 91.2872
ARG_OF_PERICENTER = 115.4496
MEAN_ANOMALY   = 79.9302

EPHEMERIS_TYPE = 0
CLASSIFICATION_TYPE = U
NORAD_CAT_ID   = 67964
ELEMENT_SET_NO = 999
REV_AT_EPOCH   = 510
BSTAR          = .2373939E-2
MEAN_MOTION_DOT = .130873E-2
MEAN_MOTION_DDOT = 0

CCSDS_OMM_VERS = 2.0
CREATION_DATE  = 
ORIGINATOR     = 

OBJECT_NAME    = STARLINK-36806
OBJECT_ID      = 2026-038E
CENTER_NAME    = EARTH
REF_FRAME      = TEME
TIME_SYSTEM    = UTC
MEAN_ELEMENT_THEORY = SGP/SGP4

EPOCH          = 2026-03-21T12:00:00.999648
MEAN_MOTION    = 15.54612571
ECCENTRICITY   = .00018883
INCLINATION    = 97.2851
RA_OF_ASC_NODE = 91.3376
ARG_OF_PERICENTER = 114.7383
MEAN_ANOMALY   = 197.7868

EPHEMERIS_TYPE = 0
CLASSIFICATION_TYPE = U
NORAD_CAT_ID   = 67965
ELEMENT_SET_NO = 999
REV_AT_EPOCH   = 510
BSTAR          = -.37871892E-1
MEAN_MOTION_DOT = -.221101E-1
MEAN_MOTION_DDOT = 0

CCSDS_OMM_VERS = 2.0
CREATION_DATE  = 
ORIGINATOR     = 

OBJECT_NAME    = STARLINK-36820
OBJECT_ID      = 2026-038F
CENTER_NAME    = EARTH
REF_FRAME      = TEME
TIME_SYSTEM    = UTC
MEAN_ELEMENT_THEORY = SGP/SGP4

EPOCH          = 2026-03-21T12:00:00.999648
MEAN_MOTION    = 15.55028919
ECCENTRICITY   = .00015684
INCLINATION    = 97.2852
RA_OF_ASC_NODE = 91.3398
ARG_OF_PERICENTER = 101.0575
MEAN_ANOMALY   = 222.8781

EPHEMERIS_TYPE = 0
CLASSIFICATION_TYPE = U
NORAD_CAT_ID   = 67966
ELEMENT_SET_NO = 999
REV_AT_EPOCH   = 510
BSTAR          = -.38907692E-1
MEAN_MOTION_DOT = -.2294828E-1
MEAN_MOTION_DDOT = 0

CCSDS_OMM_VERS = 2.0
CREATION_DATE  = 
ORIGINATOR     = 

OBJECT_NAME    = STARLINK-36819
OBJECT_ID      = 2026-038G
CENTER_NAME    = EARTH
REF_FRAME      = TEME
TIME_SYSTEM    = UTC
MEAN_ELEMENT_THEORY = SGP/SGP4

EPOCH          = 2026-03-21T12:00:00.999648
MEAN_MOTION    = 15.49232589
ECCENTRICITY   = .00015062
INCLINATION    = 97.2858
RA_OF_ASC_NODE = 91.1862
ARG_OF_PERICENTER = 90.8924
MEAN_ANOMALY   = 228.8440

EPHEMERIS_TYPE = 0
CLASSIFICATION_TYPE = U
NORAD_CAT_ID   = 67967
ELEMENT_SET_NO = 999
REV_AT_EPOCH   = 510
BSTAR          = -.21863478E-2
MEAN_MOTION_DOT = -.117427E-2
MEAN_MOTION_DDOT = 0

CCSDS_OMM_VERS = 2.0
CREATION_DATE  = 
ORIGINATOR     = 

OBJECT_NAME    = STARLINK-36812
OBJECT_ID      = 2026-038H
CENTER_NAME    = EARTH
REF_FRAME      = TEME
TIME_SYSTEM    = UTC
MEAN_ELEMENT_THEORY = SGP/SGP4

EPOCH          = 2026-03-21T12:00:00.999648
MEAN_MOTION    = 15.55418006
ECCENTRICITY   = .00013974
INCLINATION    = 97.2853
RA_OF_ASC_NODE = 91.3474
ARG_OF_PERICENTER = 103.2941
MEAN_ANOMALY   = 238.2536

EPHEMERIS_TYPE = 0
CLASSIFICATION_TYPE = U
NORAD_CAT_ID   = 67968
ELEMENT_SET_NO = 999
REV_AT_EPOCH   = 510
BSTAR          = -.38175563E-1
MEAN_MOTION_DOT = -.2285402E-1
MEAN_MOTION_DDOT = 0

CCSDS_OMM_VERS = 2.0
CREATION_DATE  = 
ORIGINATOR     = 

OBJECT_NAME    = STARLINK-36709
OBJECT_ID      = 2026-038J
CENTER_NAME    = EARTH
REF_FRAME      = TEME
TIME_SYSTEM    = UTC
MEAN_ELEMENT_THEORY = SGP/SGP4

EPOCH          = 2026-03-21T12:00:00.999648
MEAN_MOTION    = 15.55181119
ECCENTRICITY   = .00011991
INCLINATION    = 97.2850
RA_OF_ASC_NODE = 91.3521
ARG_OF_PERICENTER = 101.0015
MEAN_ANOMALY   = 251.2402

EPHEMERIS_TYPE = 0
CLASSIFICATION_TYPE = U
NORAD_CAT_ID   = 67969
ELEMENT_SET_NO = 999
REV_AT_EPOCH   = 510
BSTAR          = -.38381292E-1
MEAN_MOTION_DOT = -.2278447E-1
MEAN_MOTION_DDOT = 0

