STARLINK-36799          
1 67958U 26037AC  26080.50001157 -.01879714  00000+0 -19106-1 0  9994
2 67958  42.9992 126.1520 0001340 277.3501  37.8078 15.67297976  5098
STARLINK-36834          
1 67959U 26037AD  26080.50001157 -.01848249  00000+0 -27314-1 0  9994
2 67959  42.9993 126.5261 0001212 290.1976 234.3136 15.57776386  5098
STARLINK-36841          
1 67960U 26037AE  26080.50001157 -.01850095  00000+0 -26344-1 0  9990
2 67960  42.9996 126.4866 0001044 283.8896 256.3052 15.58755152  5096
STARLINK-36912          
1 67961U 26038A   26080.50001157 -.02222639  00000+0 -39923-1 0  9997
2 67961  97.2853  91.3182 0001857  97.6371 171.5706 15.53334275  5104
STARLINK-36881          
1 67962U 26038B   26080.50001157 -.02208861  00000+0 -39113-1 0  9990
2 67962  97.2858  91.3239 0002012 100.8216 180.1443 15.53701500  5105
STARLINK-36357          
1 67963U 26038C   26080.50001157  .00130762  00000+0  23740-2 0  9991
2 67963  97.2850  91.2905 0001110  96.3832 106.2021 15.49095686  5105
STARLINK-36349          
1 67964U 26038D   26080.50001157  .00130873  00000+0  23739-2 0  9993
2 67964  97.2850  91.2872 0001005 115.4496  79.9302 15.49120059  5102
STARLINK-36806          
1 67965U 26038E   26080.50001157 -.02211010  00000+0 -37872-1 0  9993
2 67965  97.2851  91.3376 0001888 114.7383 197.7868 15.54612571  5107
STARLINK-36820          
1 67966U 26038F   26080.50001157 -.02294828  00000+0 -38908-1 0  9993
2 67966  97.2852  91.3398 0001568 101.0575 222.8781 15.55028919  5102
STARLINK-36819          
1 67967U 26038G   26080.50001157 -.00117427  00000+0 -21863-2 0  9994
2 67967  97.2858  91.1862 0001506  90.8924 228.8440 15.49232589  5109
STARLINK-36812          
1 67968U 26038H   26080.50001157 -.02285402  00000+0 -38176-1 0  9990
2 67968  97.2853  91.3474 0001397 103.2941 238.2536 15.55418006  5100
STARLINK-36709          
1 67969U 26038J   26080.50001157 -.02278447  00000+0 -38381-1 0  9990
2 67969  97.2850  91.3521 0001199 101.0015 251.2402 15.55181119  5108
